[{"OBJECT_NAME":"NUSAT-41 (C PAYNE-G)","OBJECT_ID":"2023-084N","EPOCH":"2026-03-09T21:55:54.837696","MEAN_MOTION":15.29680045,"ECCENTRICITY":0.00062175,"INCLINATION":97.5351,"RA_OF_ASC_NODE":204.1011,"ARG_OF_PERICENTER":322.2064,"MEAN_ANOMALY":37.8738,"EPHEMERIS_TYPE":0,"CLASSIFICATION_TYPE":"U","NORAD_CAT_ID":56944,"ELEMENT_SET_NO":999,"REV_AT_EPOCH":15260,"BSTAR":0.00059912824,"MEAN_MOTION_DOT":0.0001718,"MEAN_MOTION_DDOT":0},{"OBJECT_NAME":"STARLINK-31984","OBJECT_ID":"2024-111C","EPOCH":"2026-03-09T20:05:31.997760","MEAN_MOTION":15.30204687,"ECCENTRICITY":5.745e-5,"INCLINATION":53.1607,"RA_OF_ASC_NODE":75.1119,"ARG_OF_PERICENTER":114.5206,"MEAN_ANOMALY":245.5855,"EPHEMERIS_TYPE":0,"CLASSIFICATION_TYPE":"U","NORAD_CAT_ID":60018,"ELEMENT_SET_NO":999,"REV_AT_EPOCH":9890,"BSTAR":-5.5753897e-5,"MEAN_MOTION_DOT":-2.01e-5,"MEAN_MOTION_DDOT":0}]
